{
  "norad_id": 63567,
  "name": "STARLINK-32954",
  "history": [
    {
      "epoch": "2026-03-28T11:40:41.125440Z",
      "apogee_km": 483.60088187732526,
      "perigee_km": 482.40402471109337,
      "latitude_deg": 2.328266902102883e-05,
      "longitude_deg": 163.2382309351413,
      "height_km": 482.86355405882296,
      "semi_major_axis_km": 6861.1394532942095,
      "eccentricity": 8.722e-05,
      "inclination_deg": 42.9984,
      "raan_deg": 164.3159,
      "arg_perigee_deg": 261.8286,
      "mean_anomaly_deg": 98.2467,
      "mean_motion_rev_day": 15.27595577
    },
    {
      "epoch": "2026-03-29T04:56:24.562176Z",
      "apogee_km": 484.61056915846984,
      "perigee_km": 481.3007780527214,
      "latitude_deg": -2.0098337082953726e-05,
      "longitude_deg": -100.46102967469206,
      "height_km": 482.35956607044875,
      "semi_major_axis_km": 6861.092673605595,
      "eccentricity": 0.0002412,
      "inclination_deg": 43.0007,
      "raan_deg": 160.2566,
      "arg_perigee_deg": 283.0495,
      "mean_anomaly_deg": 77.0087,
      "mean_motion_rev_day": 15.276112
    }
  ]
}